[{"OBJECT_NAME":"STARLINK-36225","OBJECT_ID":"2025-304R","EPOCH":"2026-03-09T16:36:17.634528","MEAN_MOTION":14.98339003,"ECCENTRICITY":0.0003352,"INCLINATION":70.003,"RA_OF_ASC_NODE":174.5024,"ARG_OF_PERICENTER":265.5756,"MEAN_ANOMALY":94.502,"EPHEMERIS_TYPE":0,"CLASSIFICATION_TYPE":"U","NORAD_CAT_ID":67207,"ELEMENT_SET_NO":999,"REV_AT_EPOCH":1388,"BSTAR":0.00038756376,"MEAN_MOTION_DOT":4.536e-5,"MEAN_MOTION_DDOT":0},{"OBJECT_NAME":"FENGYUN 1C DEB","OBJECT_ID":"1999-025EJU","EPOCH":"2026-02-26T20:11:02.200416","MEAN_MOTION":14.76820792,"ECCENTRICITY":0.0127498,"INCLINATION":99.1634,"RA_OF_ASC_NODE":278.149,"ARG_OF_PERICENTER":258.5062,"MEAN_ANOMALY":100.1804,"EPHEMERIS_TYPE":0,"CLASSIFICATION_TYPE":"U","NORAD_CAT_ID":37474,"ELEMENT_SET_NO":999,"REV_AT_EPOCH":63498,"BSTAR":0.0012932,"MEAN_MOTION_DOT":0.00010319,"MEAN_MOTION_DDOT":0}]
